BEIDOU-2 IGSO-1 (C06)   
1 36828U 10036A   24010.86206958 -.00000080  00000+0  00000+0 0  9995
2 36828  54.2454 171.0011 0038684 191.5727 166.3501  1.00272671 49310
BEIDOU-2 G4 (C04)       
1 37210U 10057A   24011.11057181 -.00000096  00000+0  00000+0 0  9992
2 37210   1.4695  65.7812 0007360 192.0271  52.1745  1.00272045 48374
BEIDOU-2 IGSO-2 (C07)   
1 37256U 10068A   24010.69313608 -.00000169  00000+0  00000+0 0  9996
2 37256  49.1714 282.7515 0031751 215.2860 325.5568  1.00300778 47878
BEIDOU-2 IGSO-3 (C08)   
1 37384U 11013A   24011.02842234 -.00000156  00000+0  00000+0 0  9995
2 37384  61.1232  48.6411 0029258 183.5462 353.4560  1.00298329 46764
BEIDOU-2 IGSO-4 (C09)   
1 37763U 11038A   24009.43591229  .00000066  00000+0  00000+0 0  9999
2 37763  54.5532 173.5941 0116672 226.4320 318.6048  1.00292143 45713
BEIDOU-2 IGSO-5 (C10)   
1 37948U 11073A   24010.69098366 -.00000123  00000+0  00000+0 0  9992
2 37948  49.3008 282.4298 0094131 221.2257 308.9403  1.00286961 44492
BEIDOU-2 G5 (C05)       
1 38091U 12008A   24011.09038252  .00000072  00000+0  00000+0 0  9996
2 38091   2.0188  70.2493 0008867 216.4440 274.6206  1.00272804 43577
BEIDOU-2 M3 (C11)       
1 38250U 12018A   24010.53079512 -.00000069  00000+0  00000+0 0  9993
2 38250  56.4401 334.6179 0024630 265.8958  93.8156  1.86231128 79731
BEIDOU-2 M4 (C12)       
1 38251U 12018B   24009.38778089 -.00000070  00000+0  00000+0 0  9992
2 38251  56.3498 333.9396 0015694 270.3944  89.4195  1.86231914 79722
BEIDOU-2 M6 (C14)       
1 38775U 12050B   24008.56049923 -.00000030  00000+0  00000+0 0  9992
2 38775  55.7863  92.5379 0011957 328.6428  31.3121  1.86231001 76722
BEIDOU-2 G6 (C02)       
1 38953U 12059A   24011.45352747 -.00000161  00000+0  00000+0 0  9997
2 38953   2.1567  81.4993 0009484 289.8948 346.2696  1.00268293 41145
BEIDOU-3S IGSO-1S (C31) 
1 40549U 15019A   24010.73103924 -.00000175  00000+0  00000+0 0  9996
2 40549  50.8679 306.0630 0035370 195.3390 326.7294  1.00283851 32157
BEIDOU-3S M2S (C58)     
1 40748U 15037A   24011.20022900 -.00000069  00000+0  00000+0 0  9996
2 40748  55.5849 332.3989 0011811 263.0284  96.8313  1.86232923 57586
BEIDOU-3S M1S (C57)     
1 40749U 15037B   24006.10098478 -.00000076  00000+0  00000+0 0  9991
2 40749  55.5917 332.5584 0006901 319.9014  40.0467  1.86232979 57494
BEIDOU-3S IGSO-2S (C56) 
1 40938U 15053A   24009.68799275 -.00000080  00000+0  00000+0 0  9993
2 40938  50.6074 269.2691 0045752 192.5318 347.8989  1.00254224 30433
BEIDOU-2 IGSO-6 (C13)   
1 41434U 16021A   24007.06785706 -.00000137  00000+0  00000+0 0  9998
2 41434  58.9308  46.9932 0050003 224.7399 312.7488  1.00258973 28534
BEIDOU-2 G7 (C03)       
1 41586U 16037A   24010.84842944 -.00000338  00000+0  00000+0 0  9994
2 41586   1.5280  67.0454 0009129 317.6683 141.0423  1.00277228 27871
BEIDOU-3 M1 (C19)       
1 43001U 17069A   24009.93756518 -.00000022  00000+0  00000+0 0  9993
2 43001  55.9380  92.5680 0010103 289.9609  69.9624  1.86231143 42043
BEIDOU-3 M2 (C20)       
1 43002U 17069B   24008.80059806 -.00000029  00000+0  00000+0 0  9992
2 43002  55.9368  92.6414 0007269 312.2552  47.7101  1.86230988 42019
BEIDOU-3 M7 (C27)       
1 43107U 18003A   24008.55074185 -.00000073  00000+0  00000+0 0  9995
2 43107  55.0442 333.1499 0003452  45.1776 314.8461  1.86232288 40778
BEIDOU-3 M8 (C28)       
1 43108U 18003B   24006.34205909 -.00000076  00000+0  00000+0 0  9994
2 43108  55.0386 333.2121 0004683 272.1329  87.8126  1.86230876 40734
BEIDOU-3 M4 (C22)       
1 43207U 18018A   24009.46864778 -.00000025  00000+0  00000+0 0  9995
2 43207  55.8965  92.6782 0004135 337.9377  22.0739  1.86231121 40172
BEIDOU-3 M3 (C21)       
1 43208U 18018B   24010.60917597 -.00000018  00000+0  00000+0 0  9994
2 43208  55.8968  92.6445 0007528 299.0252  60.9348  1.86231240 40192
BEIDOU-3 M9 (C29)       
1 43245U 18029A   24008.14661686 -.00000073  00000+0  00000+0 0  9999
2 43245  54.9344 330.8871 0001882 296.0892  63.8875  1.86232498 39309
BEIDOU-3 M10 (C30)      
1 43246U 18029B   24008.61343165 -.00000072  00000+0  00000+0 0  9990
2 43246  54.9306 330.8989 0004726 348.4306  11.5539  1.86232651 39308
BEIDOU-2 IGSO-7 (C16)   
1 43539U 18057A   24010.37340998 -.00000069  00000+0  00000+0 0  9999
2 43539  55.1289 170.7347 0064919 228.9705 312.9046  1.00244226 20230
BEIDOU-3 M5 (C23)       
1 43581U 18062A   24009.90824054  .00000123  00000+0  00000+0 0  9999
2 43581  54.1541 212.5615 0001837 350.0366  10.0238  1.86228693 37073
BEIDOU-3 M6 (C24)       
1 43582U 18062B   24010.84870939  .00000114  00000+0  00000+0 0  9998
2 43582  54.1538 212.5189 0007262  38.6262 321.4841  1.86229648 37090
BEIDOU-3 M12 (C26)      
1 43602U 18067A   24008.09909369  .00000133  00000+0  00000+0 0  9991
2 43602  54.2430 211.2794 0008254  30.3972 329.7172  1.86231597 36523
BEIDOU-3 M11 (C25)      
1 43603U 18067B   24010.91766243  .00000113  00000+0  00000+0 0  9996
2 43603  54.2398 211.1488 0004957  27.8698 332.2118  1.86231485 36602
BEIDOU-3 M13 (C32)      
1 43622U 18072A   24009.80336019 -.00000023  00000+0  00000+0 0  9994
2 43622  55.8671  92.2025 0006865 283.7384  76.2171  1.86230886 36095
BEIDOU-3 M14 (C33)      
1 43623U 18072B   24009.13185219 -.00000027  00000+0  00000+0 0  9999
2 43623  55.8684  92.2179 0004043 305.1355  54.8555  1.86231044 36076
BEIDOU-3 M16 (C35)      
1 43647U 18078A   24009.29530751 -.00000071  00000+0  00000+0 0  9992
2 43647  54.8292 330.9590 0007690   2.7756 357.2233  1.86232143 35591
BEIDOU-3 M15 (C34)      
1 43648U 18078B   24010.49831427 -.00000069  00000+0  00000+0 0  9998
2 43648  54.8241 330.9209 0004616   4.1033 355.8948  1.86231980 35632
BEIDOU-3 G1 (C59)       
1 43683U 18085A   24010.74850573 -.00000264  00000+0  00000+0 0  9993
2 43683   1.8101 116.7190 0001365 346.5313  55.9081  1.00265451 19149
BEIDOU-3 M17 (C36)      
1 43706U 18093A   24010.64661822  .00000116  00000+0  00000+0 0  9999
2 43706  54.2366 212.4628 0006325 295.6830  64.3114  1.86228269 34978
BEIDOU-3 M18 (C37)      
1 43707U 18093B   24008.90236080  .00000130  00000+0  00000+0 0  9996
2 43707  54.2377 212.5143 0006237 336.4277  23.6114  1.86229857 34955
BEIDOU-3 IGSO-1 (C38)   
1 44204U 19023A   23359.85561811 -.00000224  00000+0  00000+0 0  9993
2 44204  57.3835  47.0551 0023834 204.1671 266.3544  1.00248909 17270
BEIDOU-2 G8 (C01)       
1 44231U 19027A   24010.74937597 -.00000231  00000+0  00000+0 0  9996
2 44231   1.5570  72.4916 0004051 176.7531 274.8517  1.00270112 17166
BEIDOU-3 IGSO-2 (C39)   
1 44337U 19035A   24011.31742385 -.00000100  00000+0  00000+0 0  9990
2 44337  55.1674 166.6545 0031342 200.2153 335.9657  1.00289960 16796
BEIDOU-3 M24 (C46)      
1 44542U 19061A   24011.12083394  .00000111  00000+0  00000+0 0  9995
2 44542  54.4642 212.7017 0008726  12.1407 347.9374  1.86231339 29255
BEIDOU-3 M23 (C45)      
1 44543U 19061B   24009.56430313  .00000126  00000+0  00000+0 0  9994
2 44543  54.4626 212.7239 0005537  11.2869 297.2525  1.86231787 29222
BEIDOU-3 IGSO-3 (C40)   
1 44709U 19073A   24009.18214492 -.00000185  00000+0  00000+0 0  9993
2 44709  56.3213 290.4182 0034888 182.7039 177.3187  1.00298382 15534
BEIDOU-3 M22 (C44)      
1 44793U 19078A   24009.35546176 -.00000071  00000+0  00000+0 0  9991
2 44793  54.6774 330.9086 0006547   7.7778 352.2271  1.86231915 28085
BEIDOU-3 M21 (C43)      
1 44794U 19078B   24008.41179622 -.00000073  00000+0  00000+0 0  9998
2 44794  54.6517 330.9207 0004662 356.3207   3.6716  1.86232463 28060
BEIDOU-3 M19 (C41)      
1 44864U 19090A   24010.35097095 -.00000020  00000+0  00000+0 0  9991
2 44864  55.8016  92.3647 0018185 274.0533 139.4808  1.86231424 27688
BEIDOU-3 M20 (C42)      
1 44865U 19090B   24010.69362793 -.00000018  00000+0  00000+0 0  9996
2 44865  55.8036  92.3861 0015688 286.2788  86.7577  1.86231371 27667
BEIDOU-3 G2 (C60)       
1 45344U 20017A   24010.82477833 -.00000125  00000+0  00000+0 0  9996
2 45344   2.1436  22.7578 0002841 252.1818 211.8467  1.00271957 14366
BEIDOU-3 G3 (C61)       
1 45807U 20040A   24011.50250491 -.00000340  00000+0  00000+0 0  9990
2 45807   0.5889  13.9604 0008962 300.6278  87.3817  1.00273452 13181
BEIDOU-3 G4             
1 56564U 23066A   24011.11057181 -.00000091  00000+0  00000+0 0  9994
2 56564   2.5194 288.3144 0003262 227.9967 153.7121  1.00271397  2501
BEIDOU-3 M25            
1 58654U 23207A   24010.05622024 -.00000024  00000+0  00000+0 0  9995
2 58654  54.9814  92.4970 0117544 178.9367 181.1190  1.82957647   285
BEIDOU-3 M26            
1 58655U 23207B   24005.84694770 -.00000037  00000+0  00000+0 0  9998
2 58655  54.6471  92.7627 0316732  68.9835  87.0455  1.85607573   193
